$$SOE
2460721.500000000, A.D. 2025-Feb-15 00:00:00.0000, 8.410276015048453E+07, 3.656287658489305E+08, -6.847525252152607E+06,
2460728.500000000, A.D. 2025-Feb-22 00:00:00.0000, 7.174305997677369E+07, 3.671394918552316E+08, -6.205931580573305E+06,
2460735.500000000, A.D. 2025-Mar-01 00:00:00.0000, 5.931690227902168E+07, 3.683101492560951E+08, -5.558585917114154E+06,
2460742.500000000, A.D. 2025-Mar-08 00:00:00.0000, 4.683535031358230E+07, 3.691367983096908E+08, -4.906045822406635E+06,
2460749.500000000, A.D. 2025-Mar-15 00:00:00.0000, 3.430973334640872E+07, 3.696159662379830E+08, -4.248885901038140E+06,
2460756.500000000, A.D. 2025-Mar-22 00:00:00.0000, 2.175161955382114E+07, 3.697446692641225E+08, -3.587696388036788E+06,
2460763.500000000, A.D. 2025-Mar-29 00:00:00.0000, 9.172788288616337E+06, 3.695204307542055E+08, -2.923081927158773E+06,
2460770.500000000, A.D. 2025-Apr-05 00:00:00.0000, -3.414797836080032E+06, 3.689412983904539E+08, -2.255660320394114E+06,
2460777.500000000, A.D. 2025-Apr-12 00:00:00.0000, -1.599902281506220E+07, 3.680058602723521E+08, -1.586061070907474E+06,
2460784.500000000, A.D. 2025-Apr-19 00:00:00.0000, -2.856764908014033E+07, 3.667132588695322E+08, -9.149237825631052E+05,
2460791.500000000, A.D. 2025-Apr-26 00:00:00.0000, -4.110835081661999E+07, 3.650632024484739E+08, -2.428964672485292E+05,
2460798.500000000, A.D. 2025-May-03 00:00:00.0000, -5.360874842957934E+07, 3.630559738394467E+08, 4.293662201059163E+05,
2460805.500000000, A.D. 2025-May-10 00:00:00.0000, -6.605644388822596E+07, 3.606924364241733E+08, 1.101204804723948E+06,
2460812.500000000, A.D. 2025-May-17 00:00:00.0000, -7.843905665253995E+07, 3.579740372021479E+08, 1.771956853538394E+06,
2460819.500000000, A.D. 2025-May-24 00:00:00.0000, -9.074425973698217E+07, 3.549028068094789E+08, 2.440958840795234E+06,
2460826.500000000, A.D. 2025-May-31 00:00:00.0000, -1.029598152142989E+08, 3.514813567610189E+08, 3.107547990310013E+06,
2460833.500000000, A.D. 2025-Jun-07 00:00:00.0000, -1.150736092777630E+08, 3.477128751148687E+08, 3.771064214588806E+06,
2460840.500000000, A.D. 2025-Jun-14 00:00:00.0000, -1.270736889411332E+08, 3.436011199215619E+08, 4.430852297678486E+06,
2460847.500000000, A.D. 2025-Jun-21 00:00:00.0000, -1.389482988752427E+08, 3.391504072405866E+08, 5.086263927857876E+06,
2460854.500000000, A.D. 2025-Jun-28 00:00:00.0000, -1.506859149851348E+08, 3.343655955740289E+08, 5.736659423237666E+06,
2460861.500000000, A.D. 2025-Jul-05 00:00:00.0000, -1.622752759899502E+08, 3.292520690006744E+08, 6.381409450937837E+06,
2460868.500000000, A.D. 2025-Jul-12 00:00:00.0000, -1.737054139526316E+08, 3.238157183578973E+08, 7.019896769290864E+06,
2460875.500000000, A.D. 2025-Jul-19 00:00:00.0000, -1.849656833467383E+08, 3.180629200707359E+08, 7.651517916000351E+06,
2460882.500000000, A.D. 2025-Jul-26 00:00:00.0000, -1.960457882518097E+08, 3.120005127695927E+08, 8.275684806773648E+06,
2460889.500000000, A.D. 2025-Aug-02 00:00:00.0000, -2.069358074390358E+08, 3.056357719365416E+08, 8.891826229778126E+06,
2460896.500000000, A.D. 2025-Aug-09 00:00:00.0000, -2.176262171784141E+08, 2.989763827999716E+08, 9.499389223520771E+06,
2460903.500000000, A.D. 2025-Aug-16 00:00:00.0000, -2.281079115739053E+08, 2.920304116605163E+08, 1.009784031834869E+07,
2460910.500000000, A.D. 2025-Aug-23 00:00:00.0000, -2.383722200471193E+08, 2.848062759184826E+08, 1.068666661006659E+07,
2460917.500000000, A.D. 2025-Aug-30 00:00:00.0000, -2.484109215842185E+08, 2.773127137740421E+08, 1.126537668942407E+07,
2460924.500000000, A.D. 2025-Sep-06 00:00:00.0000, -2.582162571393412E+08, 2.695587548588928E+08, 1.183350163635932E+07,
2460931.500000000, A.D. 2025-Sep-13 00:00:00.0000, -2.677809418685246E+08, 2.615536895745983E+08, 1.239059602780852E+07,
2460938.500000000, A.D. 2025-Sep-20 00:00:00.0000, -2.770981739446735E+08, 2.533070357404139E+08, 1.293623852470654E+07,
2460945.500000000, A.D. 2025-Sep-27 00:00:00.0000, -2.861616389467731E+08, 2.448285058938850E+08, 1.347003219712280E+07,
2460952.500000000, A.D. 2025-Oct-04 00:00:00.0000, -2.949655119195929E+08, 2.361279760087391E+08, 1.399160481910789E+07,
2460959.500000000, A.D. 2025-Oct-11 00:00:00.0000, -3.035044575716616E+08, 2.272154548979960E+08, 1.450060909408754E+07,
2460966.500000000, A.D. 2025-Oct-18 00:00:00.0000, -3.117736284369600E+08, 2.181010542157809E+08, 1.499672276716046E+07,
2460973.500000000, A.D. 2025-Oct-25 00:00:00.0000, -3.197686609882857E+08, 2.087949592351968E+08, 1.547964861811312E+07,
2460980.500000000, A.D. 2025-Nov-01 00:00:00.0000, -3.274856698076071E+08, 1.993074005658614E+08, 1.594911433928080E+07,
2460987.500000000, A.D. 2025-Nov-08 00:00:00.0000, -3.349212399360847E+08, 1.896486269116026E+08, 1.640487229961754E+07,
2460994.500000000, A.D. 2025-Nov-15 00:00:00.0000, -3.420724174191232E+08, 1.798288789246898E+08, 1.684669918416183E+07,
2461001.500000000, A.D. 2025-Nov-22 00:00:00.0000, -3.489366978081347E+08, 1.698583644719632E+08, 1.727439549776388E+07,
2461008.500000000, A.D. 2025-Nov-29 00:00:00.0000, -3.555120129360744E+08, 1.597472365215628E+08, 1.768778504785230E+07,
2461015.500000000, A.D. 2025-Dec-06 00:00:00.0000, -3.617967184086293E+08, 1.495055735675513E+08, 1.808671461203288E+07,
2461022.500000000, A.D. 2025-Dec-13 00:00:00.0000, -3.677895815404187E+08, 1.391433592591007E+08, 1.847105348342127E+07,
2461029.500000000, A.D. 2025-Dec-20 00:00:00.0000, -3.734897663966186E+08, 1.286704622770655E+08, 1.884069266513044E+07,
2461036.500000000, A.D. 2025-Dec-27 00:00:00.0000, -3.788968171612883E+08, 1.180966190489034E+08, 1.919554403207866E+07,
2461043.500000000, A.D. 2026-Jan-03 00:00:00.0000, -3.840106414384866E+08, 1.074314186735800E+08, 1.953553955118343E+07,
2461050.500000000, A.D. 2026-Jan-10 00:00:00.0000, -3.888314935155144E+08, 9.668428935599187E+07, 1.986063050176772E+07,
2461057.500000000, A.D. 2026-Jan-17 00:00:00.0000, -3.933599574835267E+08, 8.586448622687888E+07, 2.017078667446729E+07,
2461064.500000000, A.D. 2026-Jan-24 00:00:00.0000, -3.975969302555417E+08, 7.498108052819271E+07, 2.046599555002060E+07,
2461071.500000000, A.D. 2026-Jan-31 00:00:00.0000, -4.015436045670497E+08, 6.404295010578938E+07, 2.074626146139286E+07,
2461078.500000000, A.D. 2026-Feb-07 00:00:00.0000, -4.052014519967289E+08, 5.305877109507475E+07, 2.101160473464880E+07,
2461085.500000000, A.D. 2026-Feb-14 00:00:00.0000, -4.085722058432751E+08, 4.203701072232376E+07, 2.126206078936687E+07,
2461092.500000000, A.D. 2026-Feb-21 00:00:00.0000, -4.116578435496736E+08, 3.098592173281984E+07, 2.149767921495065E+07,
2461099.500000000, A.D. 2026-Feb-28 00:00:00.0000, -4.144605698288358E+08, 1.991353953013511E+07, 2.171852302077530E+07,
2461106.500000000, A.D. 2026-Mar-07 00:00:00.0000, -4.169828026105020E+08, 8.827680005152885E+06, 2.192466809325308E+07,
2461113.500000000, A.D. 2026-Mar-14 00:00:00.0000, -4.192271590871976E+08, -2.264064348668545E+06, 2.211620241788458E+07,
2461120.500000000, A.D. 2026-Mar-21 00:00:00.0000, -4.211964401174330E+08, -1.335432720570350E+07, 2.229322514247977E+07,
2461127.500000000, A.D. 2026-Mar-28 00:00:00.0000, -4.228936150267469E+08, -2.443596910772813E+07, 2.245584575212489E+07,
2461134.500000000, A.D. 2026-Apr-04 00:00:00.0000, -4.243218074379009E+08, -3.550207713097787E+07, 2.260418333416647E+07,
2461141.500000000, A.D. 2026-Apr-11 00:00:00.0000, -4.254842818796214E+08, -4.654596395036794E+07, 2.273836588041701E+07,
2461148.500000000, A.D. 2026-Apr-18 00:00:00.0000, -4.263844310315288E+08, -5.756116637410054E+07, 2.285852961304529E+07,
2461155.500000000, A.D. 2026-Apr-25 00:00:00.0000, -4.270257635704250E+08, -6.854144339774793E+07, 2.296481833251364E+07,
2461162.500000000, A.D. 2026-May-02 00:00:00.0000, -4.274118925933033E+08, -7.948077386819129E+07, 2.305738278338418E+07,
2461169.500000000, A.D. 2026-May-09 00:00:00.0000, -4.275465244940529E+08, -9.037335388103575E+07, 2.313638002189280E+07,
2461176.500000000, A.D. 2026-May-16 00:00:00.0000, -4.274334479132952E+08, -1.012135938271174E+08, 2.320197276234937E+07,
2461183.500000000, A.D. 2026-May-23 00:00:00.0000, -4.270765227030016E+08, -1.119961141163860E+08, 2.325432878125596E+07,
2461190.500000000, A.D. 2026-May-30 00:00:00.0000, -4.264796709747542E+08, -1.227157393075085E+08, 2.329362059565434E+07,
2461197.500000000, A.D. 2026-Jun-06 00:00:00.0000, -4.256468705384672E+08, -1.333674939620424E+08, 2.332002517684488E+07,
2461204.500000000, A.D. 2026-Jun-13 00:00:00.0000, -4.245821470541416E+08, -1.439466000649194E+08, 2.333372337906820E+07,
2461211.500000000, A.D. 2026-Jun-20 00:00:00.0000, -4.232895653818126E+08, -1.544484731207161E+08, 2.333489936760058E+07,
2461218.500000000, A.D. 2026-Jun-27 00:00:00.0000, -4.217732218083516E+08, -1.648687172987563E+08, 2.332374017321988E+07,
2461225.500000000, A.D. 2026-Jul-04 00:00:00.0000, -4.200372371307942E+08, -1.752031204339281E+08, 2.330043530845430E+07,
2461232.500000000, A.D. 2026-Jul-11 00:00:00.0000, -4.180857503222474E+08, -1.854476490452765E+08, 2.326517641030184E+07,
2461239.500000000, A.D. 2026-Jul-18 00:00:00.0000, -4.159229126681883E+08, -1.955984433746064E+08, 2.321815690187176E+07,
2461246.500000000, A.D. 2026-Jul-25 00:00:00.0000, -4.135528823301126E+08, -2.056518124679045E+08, 2.315957166988120E+07,
2461253.500000000, A.D. 2026-Aug-01 00:00:00.0000, -4.109798192706478E+08, -2.156042293702188E+08, 2.308961674869472E+07,
2461260.500000000, A.D. 2026-Aug-08 00:00:00.0000, -4.082078803075064E+08, -2.254523264890719E+08, 2.300848898734581E+07,
2461267.500000000, A.D. 2026-Aug-15 00:00:00.0000, -4.052412138628198E+08, -2.351928906922336E+08, 2.291638569736187E+07,
2461274.500000000, A.D. 2026-Aug-22 00:00:00.0000, -4.020839551495185E+08, -2.448228569324488E+08, 2.281350445003369E+07,
2461281.500000000, A.D. 2026-Aug-29 00:00:00.0000, -3.987402240641201E+08, -2.543393017845803E+08, 2.270004311985995E+07,
2461288.500000000, A.D. 2026-Sep-05 00:00:00.0000, -3.952141236340442E+08, -2.637394397754251E+08, 2.257619974313863E+07,
$$EOE